{
  "links" : {
    "next" : "https://api.nasa.gov/neo/rest/v1/feed?start_date=2013-10-23&end_date=2013-10-23&detailed=true&api_key=t0TVs3DtDT2H8Oy2Zy8m2eVrNsAVKAexjcZXUckd",
    "prev" : "https://api.nasa.gov/neo/rest/v1/feed?start_date=2013-10-21&end_date=2013-10-21&detailed=true&api_key=t0TVs3DtDT2H8Oy2Zy8m2eVrNsAVKAexjcZXUckd",
    "self" : "https://api.nasa.gov/neo/rest/v1/feed?start_date=2013-10-22&end_date=2013-10-22&detailed=true&api_key=t0TVs3DtDT2H8Oy2Zy8m2eVrNsAVKAexjcZXUckd"
  },
  "element_count" : 9,
  "near_earth_objects" : {
    "2013-10-22" : [ {
      "links" : {
        "self" : "https://api.nasa.gov/neo/rest/v1/neo/3648762?api_key=t0TVs3DtDT2H8Oy2Zy8m2eVrNsAVKAexjcZXUckd"
      },
      "neo_reference_id" : "3648762",
      "name" : "(2013 TD4)",
      "nasa_jpl_url" : "http://ssd.jpl.nasa.gov/sbdb.cgi?sstr=3648762",
      "absolute_magnitude_h" : 21.3,
      "estimated_diameter" : {
        "kilometers" : {
          "estimated_diameter_min" : 0.1460679643,
          "estimated_diameter_max" : 0.3266178974
        },
        "meters" : {
          "estimated_diameter_min" : 146.0679642714,
          "estimated_diameter_max" : 326.6178974458
        },
        "miles" : {
          "estimated_diameter_min" : 0.090762397,
          "estimated_diameter_max" : 0.2029508896
        },
        "feet" : {
          "estimated_diameter_min" : 479.2256199,
          "estimated_diameter_max" : 1071.581062656
        }
      },
      "is_potentially_hazardous_asteroid" : false,
      "close_approach_data" : [ {
        "close_approach_date" : "2013-10-22",
        "epoch_date_close_approach" : 1382425200000,
        "relative_velocity" : {
          "kilometers_per_second" : "4.247408372",
          "kilometers_per_hour" : "15290.6701391106",
          "miles_per_hour" : "9501.0277872713"
        },
        "miss_distance" : {
          "astronomical" : "0.3282623028",
          "lunar" : "127.6940307617",
          "kilometers" : "49107340",
          "miles" : "30513888"
        },
        "orbiting_body" : "Earth"
      } ],
      "orbital_data" : {
        "orbit_id" : "26",
        "orbit_determination_date" : "2017-04-06 08:44:25",
        "orbit_uncertainty" : "5",
        "minimum_orbit_intersection" : ".301328",
        "jupiter_tisserand_invariant" : "3.562",
        "epoch_osculation" : "2458000.5",
        "eccentricity" : ".4040516321436128",
        "semi_major_axis" : "2.177528585311913",
        "inclination" : "7.800630901122192",
        "ascending_node_longitude" : "28.02527029841554",
        "orbital_period" : "1173.665190682784",
        "perihelion_distance" : "1.297694606377262",
        "perihelion_argument" : "354.4807599638921",
        "aphelion_distance" : "3.057362564246564",
        "perihelion_time" : "2457746.945252452354",
        "mean_anomaly" : "77.77320980615461",
        "mean_motion" : ".3067314280579189",
        "equinox" : "J2000"
      }
    }, {
      "links" : {
        "self" : "https://api.nasa.gov/neo/rest/v1/neo/3653305?api_key=t0TVs3DtDT2H8Oy2Zy8m2eVrNsAVKAexjcZXUckd"
      },
      "neo_reference_id" : "3653305",
      "name" : "(2013 UQ8)",
      "nasa_jpl_url" : "http://ssd.jpl.nasa.gov/sbdb.cgi?sstr=3653305",
      "absolute_magnitude_h" : 25.6,
      "estimated_diameter" : {
        "kilometers" : {
          "estimated_diameter_min" : 0.0201629919,
          "estimated_diameter_max" : 0.0450858206
        },
        "meters" : {
          "estimated_diameter_min" : 20.1629919443,
          "estimated_diameter_max" : 45.0858206172
        },
        "miles" : {
          "estimated_diameter_min" : 0.0125286985,
          "estimated_diameter_max" : 0.0280150214
        },
        "feet" : {
          "estimated_diameter_min" : 66.1515504905,
          "estimated_diameter_max" : 147.9193637137
        }
      },
      "is_potentially_hazardous_asteroid" : false,
      "close_approach_data" : [ {
        "close_approach_date" : "2013-10-22",
        "epoch_date_close_approach" : 1382425200000,
        "relative_velocity" : {
          "kilometers_per_second" : "11.0615494634",
          "kilometers_per_hour" : "39821.5780683304",
          "miles_per_hour" : "24743.5799947356"
        },
        "miss_distance" : {
          "astronomical" : "0.0270381519",
          "lunar" : "10.5178413391",
          "kilometers" : "4044850",
          "miles" : "2513353.25"
        },
        "orbiting_body" : "Earth"
      } ],
      "orbital_data" : {
        "orbit_id" : "6",
        "orbit_determination_date" : "2017-04-06 08:43:56",
        "orbit_uncertainty" : "8",
        "minimum_orbit_intersection" : ".0051239",
        "jupiter_tisserand_invariant" : "3.831",
        "epoch_osculation" : "2456594.5",
        "eccentricity" : ".5068529163964179",
        "semi_major_axis" : "1.85752464175855",
        "inclination" : ".4648694753163567",
        "ascending_node_longitude" : "337.6840296537334",
        "orbital_period" : "924.6988181155917",
        "perihelion_distance" : ".9160328598050174",
        "perihelion_argument" : "6.891393818877081",
        "aphelion_distance" : "2.799016423712082",
        "perihelion_time" : "2456554.617340569174",
        "mean_anomaly" : "15.52695549493238",
        "mean_motion" : ".3893159512560319",
        "equinox" : "J2000"
      }
    }, {
      "links" : {
        "self" : "https://api.nasa.gov/neo/rest/v1/neo/3653304?api_key=t0TVs3DtDT2H8Oy2Zy8m2eVrNsAVKAexjcZXUckd"
      },
      "neo_reference_id" : "3653304",
      "name" : "(2013 UR8)",
      "nasa_jpl_url" : "http://ssd.jpl.nasa.gov/sbdb.cgi?sstr=3653304",
      "absolute_magnitude_h" : 22.6,
      "estimated_diameter" : {
        "kilometers" : {
          "estimated_diameter_min" : 0.0802703167,
          "estimated_diameter_max" : 0.1794898848
        },
        "meters" : {
          "estimated_diameter_min" : 80.2703167283,
          "estimated_diameter_max" : 179.4898847799
        },
        "miles" : {
          "estimated_diameter_min" : 0.049877647,
          "estimated_diameter_max" : 0.1115298092
        },
        "feet" : {
          "estimated_diameter_min" : 263.3540659348,
          "estimated_diameter_max" : 588.8775935812
        }
      },
      "is_potentially_hazardous_asteroid" : false,
      "close_approach_data" : [ {
        "close_approach_date" : "2013-10-22",
        "epoch_date_close_approach" : 1382425200000,
        "relative_velocity" : {
          "kilometers_per_second" : "7.5775039772",
          "kilometers_per_hour" : "27279.0143178294",
          "miles_per_hour" : "16950.1186465424"
        },
        "miss_distance" : {
          "astronomical" : "0.20006582",
          "lunar" : "77.8256072998",
          "kilometers" : "29929422",
          "miles" : "18597280"
        },
        "orbiting_body" : "Earth"
      } ],
      "orbital_data" : {
        "orbit_id" : "10",
        "orbit_determination_date" : "2017-04-06 08:43:56",
        "orbit_uncertainty" : "8",
        "minimum_orbit_intersection" : ".141696",
        "jupiter_tisserand_invariant" : "3.023",
        "epoch_osculation" : "2456595.5",
        "eccentricity" : ".5965456637865316",
        "semi_major_axis" : "2.824337420073141",
        "inclination" : "3.51342095091439",
        "ascending_node_longitude" : "199.301413508231",
        "orbital_period" : "1733.697396560289",
        "perihelion_distance" : "1.139491179058469",
        "perihelion_argument" : "181.2732233388856",
        "aphelion_distance" : "4.509183661087813",
        "perihelion_time" : "2456586.989271965015",
        "mean_anomaly" : "1.767241560536112",
        "mean_motion" : ".2076486938921702",
        "equinox" : "J2000"
      }
    } ]
  }
}